[{"OBJECT_NAME":"STARLINK-31791","OBJECT_ID":"2024-082G","EPOCH":"2026-03-09T05:24:39.890880","MEAN_MOTION":15.27551311,"ECCENTRICITY":3.667e-5,"INCLINATION":42.9988,"RA_OF_ASC_NODE":142.1953,"ARG_OF_PERICENTER":200.7339,"MEAN_ANOMALY":159.3497,"EPHEMERIS_TYPE":0,"CLASSIFICATION_TYPE":"U","NORAD_CAT_ID":59637,"ELEMENT_SET_NO":999,"REV_AT_EPOCH":10474,"BSTAR":0.00011811975,"MEAN_MOTION_DOT":2.987e-5,"MEAN_MOTION_DDOT":0},{"OBJECT_NAME":"OBJECT P","OBJECT_ID":"2025-155P","EPOCH":"2026-03-09T22:15:55.475424","MEAN_MOTION":15.2544775,"ECCENTRICITY":0.00080527,"INCLINATION":97.4496,"RA_OF_ASC_NODE":37.0295,"ARG_OF_PERICENTER":153.0691,"MEAN_ANOMALY":207.0966,"EPHEMERIS_TYPE":0,"CLASSIFICATION_TYPE":"U","NORAD_CAT_ID":64889,"ELEMENT_SET_NO":999,"REV_AT_EPOCH":6557,"BSTAR":0.00031377111,"MEAN_MOTION_DOT":7.871e-5,"MEAN_MOTION_DDOT":0}]
